{
  "links" : {
    "next" : "https://api.nasa.gov/neo/rest/v1/feed?start_date=2012-12-23&end_date=2012-12-23&detailed=true&api_key=t0TVs3DtDT2H8Oy2Zy8m2eVrNsAVKAexjcZXUckd",
    "prev" : "https://api.nasa.gov/neo/rest/v1/feed?start_date=2012-12-21&end_date=2012-12-21&detailed=true&api_key=t0TVs3DtDT2H8Oy2Zy8m2eVrNsAVKAexjcZXUckd",
    "self" : "https://api.nasa.gov/neo/rest/v1/feed?start_date=2012-12-22&end_date=2012-12-22&detailed=true&api_key=t0TVs3DtDT2H8Oy2Zy8m2eVrNsAVKAexjcZXUckd"
  },
  "element_count" : 5,
  "near_earth_objects" : {
    "2012-12-22" : [ {
      "links" : {
        "self" : "https://api.nasa.gov/neo/rest/v1/neo/3621815?api_key=t0TVs3DtDT2H8Oy2Zy8m2eVrNsAVKAexjcZXUckd"
      },
      "neo_reference_id" : "3621815",
      "name" : "(2013 AC)",
      "nasa_jpl_url" : "http://ssd.jpl.nasa.gov/sbdb.cgi?sstr=3621815",
      "absolute_magnitude_h" : 25.2,
      "estimated_diameter" : {
        "kilometers" : {
          "estimated_diameter_min" : 0.0242412481,
          "estimated_diameter_max" : 0.0542050786
        },
        "meters" : {
          "estimated_diameter_min" : 24.2412481101,
          "estimated_diameter_max" : 54.2050786336
        },
        "miles" : {
          "estimated_diameter_min" : 0.0150628086,
          "estimated_diameter_max" : 0.0336814639
        },
        "feet" : {
          "estimated_diameter_min" : 79.5316564495,
          "estimated_diameter_max" : 177.8381901842
        }
      },
      "is_potentially_hazardous_asteroid" : false,
      "close_approach_data" : [ {
        "close_approach_date" : "2012-12-22",
        "epoch_date_close_approach" : 1356163200000,
        "relative_velocity" : {
          "kilometers_per_second" : "5.9083546395",
          "kilometers_per_hour" : "21270.0767022385",
          "miles_per_hour" : "13216.3984931215"
        },
        "miss_distance" : {
          "astronomical" : "0.0398505737",
          "lunar" : "15.5018730164",
          "kilometers" : "5961561",
          "miles" : "3704342.25"
        },
        "orbiting_body" : "Earth"
      } ],
      "orbital_data" : {
        "orbit_id" : "9",
        "orbit_determination_date" : "2017-04-06 08:47:28",
        "orbit_uncertainty" : "7",
        "minimum_orbit_intersection" : ".0306396",
        "jupiter_tisserand_invariant" : "4.134",
        "epoch_osculation" : "2458000.5",
        "eccentricity" : ".4042352024887978",
        "semi_major_axis" : "1.681127235069385",
        "inclination" : "1.958805968733364",
        "ascending_node_longitude" : "303.2555516829656",
        "orbital_period" : "796.1580723980061",
        "perihelion_distance" : "1.001556426791679",
        "perihelion_argument" : "129.6504991778756",
        "aphelion_distance" : "2.360698043347091",
        "perihelion_time" : "2457861.664494125259",
        "mean_anomaly" : "62.77746071752544",
        "mean_motion" : ".4521715127696815",
        "equinox" : "J2000"
      }
    }, {
      "links" : {
        "self" : "https://api.nasa.gov/neo/rest/v1/neo/3623679?api_key=t0TVs3DtDT2H8Oy2Zy8m2eVrNsAVKAexjcZXUckd"
      },
      "neo_reference_id" : "3623679",
      "name" : "(2013 AD53)",
      "nasa_jpl_url" : "http://ssd.jpl.nasa.gov/sbdb.cgi?sstr=3623679",
      "absolute_magnitude_h" : 23.4,
      "estimated_diameter" : {
        "kilometers" : {
          "estimated_diameter_min" : 0.0555334912,
          "estimated_diameter_max" : 0.1241766613
        },
        "meters" : {
          "estimated_diameter_min" : 55.5334911581,
          "estimated_diameter_max" : 124.1766612574
        },
        "miles" : {
          "estimated_diameter_min" : 0.0345069009,
          "estimated_diameter_max" : 0.0771597762
        },
        "feet" : {
          "estimated_diameter_min" : 182.1964991311,
          "estimated_diameter_max" : 407.4037573197
        }
      },
      "is_potentially_hazardous_asteroid" : false,
      "close_approach_data" : [ {
        "close_approach_date" : "2012-12-22",
        "epoch_date_close_approach" : 1356163200000,
        "relative_velocity" : {
          "kilometers_per_second" : "9.4250691239",
          "kilometers_per_hour" : "33930.2488461412",
          "miles_per_hour" : "21082.9371233148"
        },
        "miss_distance" : {
          "astronomical" : "0.140453586",
          "lunar" : "54.6364479065",
          "kilometers" : "21011558",
          "miles" : "13055977"
        },
        "orbiting_body" : "Earth"
      } ],
      "orbital_data" : {
        "orbit_id" : "8",
        "orbit_determination_date" : "2017-04-06 08:47:20",
        "orbit_uncertainty" : "6",
        "minimum_orbit_intersection" : ".140935",
        "jupiter_tisserand_invariant" : "4.367",
        "epoch_osculation" : "2458000.5",
        "eccentricity" : ".3515113995567863",
        "semi_major_axis" : "1.540759634434475",
        "inclination" : "13.74634388500348",
        "ascending_node_longitude" : "294.6039637662532",
        "orbital_period" : "698.5552564873672",
        "perihelion_distance" : ".9991650589538106",
        "perihelion_argument" : "110.8789695545876",
        "aphelion_distance" : "2.08235420991514",
        "perihelion_time" : "2458337.992703783431",
        "mean_anomaly" : "186.0733532047623",
        "mean_motion" : ".515349353765131",
        "equinox" : "J2000"
      }
    }, {
      "links" : {
        "self" : "https://api.nasa.gov/neo/rest/v1/neo/2331509?api_key=t0TVs3DtDT2H8Oy2Zy8m2eVrNsAVKAexjcZXUckd"
      },
      "neo_reference_id" : "2331509",
      "name" : "331509 (1999 YA)",
      "nasa_jpl_url" : "http://ssd.jpl.nasa.gov/sbdb.cgi?sstr=2331509",
      "absolute_magnitude_h" : 18.3,
      "estimated_diameter" : {
        "kilometers" : {
          "estimated_diameter_min" : 0.5815070396,
          "estimated_diameter_max" : 1.30028927
        },
        "meters" : {
          "estimated_diameter_min" : 581.5070396458,
          "estimated_diameter_max" : 1300.2892700427
        },
        "miles" : {
          "estimated_diameter_min" : 0.3613316107,
          "estimated_diameter_max" : 0.807962044
        },
        "feet" : {
          "estimated_diameter_min" : 1907.8315559515,
          "estimated_diameter_max" : 4266.0410487267
        }
      },
      "is_potentially_hazardous_asteroid" : false,
      "close_approach_data" : [ {
        "close_approach_date" : "2012-12-22",
        "epoch_date_close_approach" : 1356163200000,
        "relative_velocity" : {
          "kilometers_per_second" : "19.5947688288",
          "kilometers_per_hour" : "70541.1677836321",
          "miles_per_hour" : "43831.538393113"
        },
        "miss_distance" : {
          "astronomical" : "0.4533342692",
          "lunar" : "176.3470306396",
          "kilometers" : "67817840",
          "miles" : "42140052"
        },
        "orbiting_body" : "Earth"
      } ],
      "orbital_data" : {
        "orbit_id" : "58",
        "orbit_determination_date" : "2017-04-06 09:23:32",
        "orbit_uncertainty" : "0",
        "minimum_orbit_intersection" : ".368139",
        "jupiter_tisserand_invariant" : "3.942",
        "epoch_osculation" : "2458000.5",
        "eccentricity" : ".3392995715496609",
        "semi_major_axis" : "1.676770157634751",
        "inclination" : "38.23688724772997",
        "ascending_node_longitude" : "106.1941673281721",
        "orbital_period" : "793.0649034149695",
        "perihelion_distance" : "1.107842761562022",
        "perihelion_argument" : "265.5523474956942",
        "aphelion_distance" : "2.245697553707479",
        "perihelion_time" : "2457776.869371206484",
        "mean_anomaly" : "101.5137929052204",
        "mean_motion" : ".4539351047434144",
        "equinox" : "J2000"
      }
    } ]
  }
}